OBJECT_NAME,OBJECT_ID,EPOCH,MEAN_MOTION,ECCENTRICITY,INCLINATION,RA_OF_ASC_NODE,ARG_OF_PERICENTER,MEAN_ANOMALY,EPHEMERIS_TYPE,CLASSIFICATION_TYPE,NORAD_CAT_ID,ELEMENT_SET_NO,REV_AT_EPOCH,BSTAR,MEAN_MOTION_DOT,MEAN_MOTION_DDOT
IRIDIUM 154,2018-061F,2026-06-20T02:12:38.368800,14.34217644,.00021547,86.3959,55.5922,88.5126,271.6316,0,U,43574,999,41382,.59241666E-4,.186E-5,0
IRIDIUM 163,2018-061G,2026-06-20T05:06:10.361952,14.34217034,.00022334,86.3958,55.4572,83.4666,276.6784,0,U,43575,999,41381,.20828498E-4,.78E-6,0
IRIDIUM 156,2018-061H,2026-06-20T04:29:38.847552,14.34216406,.00020373,86.3959,55.4751,83.3511,276.7917,0,U,43576,999,41380,.67204755E-4,.208E-5,0
IRIDIUM 164,2018-061J,2026-06-20T02:21:46.472256,14.34217219,.00021697,86.3959,55.5525,89.5785,270.5659,0,U,43577,999,41383,.1539154E-5,.24E-6,0
IRIDIUM 159,2018-061K,2026-06-20T04:57:02.471904,14.34217967,.00022589,86.3958,55.4442,84.0822,276.0631,0,U,43578,999,41381,.13865698E-4,.59E-6,0
IRIDIUM 180,2019-002A,2026-06-19T22:14:26.909376,14.34217637,.0002259,86.3972,352.4520,89.4347,270.7107,0,U,43922,999,38938,.28187127E-4,.99E-6,0
IRIDIUM 176,2019-002B,2026-06-20T05:13:07.508928,14.72270354,.00023278,86.6092,352.2734,93.4870,266.6613,0,U,43923,999,39969,.87403848E-4,.576E-5,0
IRIDIUM 168,2019-002C,2026-06-19T23:45:46.402560,14.34220032,.00022046,86.3974,352.5028,89.8237,270.3212,0,U,43924,999,38937,.55778331E-4,.176E-5,0
IRIDIUM 173,2019-002D,2026-06-19T23:27:30.955104,14.34217706,.00021796,86.3969,352.3968,87.6004,272.5441,0,U,43925,999,38935,.57397704E-4,.181E-5,0
IRIDIUM 169,2019-002E,2026-06-20T00:49:38.405856,14.38610139,.00017663,86.4222,24.0027,74.9472,285.1921,0,U,43926,999,39063,.61519448E-4,.208E-5,0
IRIDIUM 172,2019-002F,2026-06-19T23:18:22.525920,14.34219532,.00022537,86.3971,352.4075,88.8091,271.3363,0,U,43927,999,38936,.5343654E-4,.169E-5,0
IRIDIUM 175,2019-002G,2026-06-19T20:10:18.657408,14.43613939,.00028557,86.4514,289.4117,171.3233,188.8018,0,U,43928,999,39936,.69606579E-4,.256E-5,0
IRIDIUM 171,2019-002H,2026-06-19T22:50:58.924032,14.34217316,.00019372,86.3975,352.7219,91.7748,268.3670,0,U,43929,999,38935,-.13757775E-4,-.19E-6,0
IRIDIUM 170,2019-002J,2026-06-19T22:50:32.053632,14.72270586,.00023574,86.6092,352.3869,89.9676,270.1811,0,U,43930,999,39966,.87910845E-4,.579E-5,0
IRIDIUM 167,2019-002K,2026-06-19T22:41:50.883648,14.34217484,.00017902,86.3966,352.4406,93.8532,266.2868,0,U,43931,999,38935,-.571118E-5,.4E-7,0
IRIDIUM 181,2023-068S,2026-06-19T17:46:59.820960,14.43307820,.00024008,86.4498,55.7232,89.0162,271.1314,0,U,56726,999,16280,.65550293E-4,.241E-5,0
IRIDIUM 177,2023-068T,2026-06-20T03:53:03.751872,14.80229326,.00023585,86.1964,327.3782,88.8047,271.3444,0,U,56727,999,16680,.99427453E-4,.782E-5,0
IRIDIUM 174,2023-068U,2026-06-20T05:04:16.160160,14.72267297,.00024321,86.6099,352.4260,84.3453,275.8042,0,U,56728,999,16646,.89898438E-4,.592E-5,0
IRIDIUM 178,2023-068V,2026-06-20T00:22:42.456288,14.80237780,.00026089,86.6536,24.1779,85.3465,274.8055,0,U,56729,999,16678,.91292859E-4,.72E-5,0
IRIDIUM 179,2023-068W,2026-06-20T01:52:17.227488,14.80235187,.00024648,86.6772,33.1402,88.0528,272.0976,0,U,56730,999,16679,.8929666E-4,.705E-5,0
