IRIDIUM 154             
1 43574U 18061F   26171.09211075  .00000186  00000+0  59242-4 0  9991
2 43574  86.3959  55.5922 0002154  88.5126 271.6316 14.34217644413825
IRIDIUM 163             
1 43575U 18061G   26171.21261993  .00000078  00000+0  20828-4 0  9998
2 43575  86.3958  55.4572 0002233  83.4666 276.6784 14.34217034413812
IRIDIUM 156             
1 43576U 18061H   26171.18725518  .00000208  00000+0  67205-4 0  9998
2 43576  86.3959  55.4751 0002037  83.3511 276.7917 14.34216406413803
IRIDIUM 164             
1 43577U 18061J   26171.09845454  .00000024  00000+0  15392-5 0  9998
2 43577  86.3959  55.5525 0002169  89.5785 270.5659 14.34217219413832
IRIDIUM 159             
1 43578U 18061K   26171.20627861  .00000059  00000+0  13866-4 0  9993
2 43578  86.3958  55.4442 0002258  84.0822 276.0631 14.34217967413819
IRIDIUM 180             
1 43922U 19002A   26170.92670034  .00000099  00000+0  28187-4 0  9996
2 43922  86.3972 352.4520 0002259  89.4347 270.7107 14.34217637389384
IRIDIUM 176             
1 43923U 19002B   26171.21744802  .00000576  00000+0  87404-4 0  9992
2 43923  86.6092 352.2734 0002327  93.4870 266.6613 14.72270354399696
IRIDIUM 168             
1 43924U 19002C   26170.99012040  .00000176  00000+0  55778-4 0  9994
2 43924  86.3974 352.5028 0002204  89.8237 270.3212 14.34220032389379
IRIDIUM 173             
1 43925U 19002D   26170.97744161  .00000181  00000+0  57398-4 0  9995
2 43925  86.3969 352.3968 0002179  87.6004 272.5441 14.34217706389354
IRIDIUM 169             
1 43926U 19002E   26171.03447229  .00000208  00000+0  61519-4 0  9999
2 43926  86.4222  24.0027 0001766  74.9472 285.1921 14.38610139390633
IRIDIUM 172             
1 43927U 19002F   26170.97109405  .00000169  00000+0  53437-4 0  9999
2 43927  86.3971 352.4075 0002253  88.8091 271.3363 14.34219532389361
IRIDIUM 175             
1 43928U 19002G   26170.84049372  .00000256  00000+0  69607-4 0  9995
2 43928  86.4514 289.4117 0002855 171.3233 188.8018 14.43613939399365
IRIDIUM 171             
1 43929U 19002H   26170.95207088 -.00000019  00000+0 -13758-4 0  9993
2 43929  86.3975 352.7219 0001937  91.7748 268.3670 14.34217316389354
IRIDIUM 170             
1 43930U 19002J   26170.95175988  .00000579  00000+0  87911-4 0  9999
2 43930  86.6092 352.3869 0002357  89.9676 270.1811 14.72270586399665
IRIDIUM 167             
1 43931U 19002K   26170.94572782  .00000004  00000+0 -57112-5 0  9997
2 43931  86.3966 352.4406 0001790  93.8532 266.2868 14.34217484389355
IRIDIUM 181             
1 56726U 23068S   26170.74097015  .00000241  00000+0  65550-4 0  9995
2 56726  86.4498  55.7232 0002400  89.0162 271.1314 14.43307820162801
IRIDIUM 177             
1 56727U 23068T   26171.16184898  .00000782  00000+0  99427-4 0  9999
2 56727  86.1964 327.3782 0002358  88.8047 271.3444 14.80229326166801
IRIDIUM 174             
1 56728U 23068U   26171.21129815  .00000592  00000+0  89898-4 0  9994
2 56728  86.6099 352.4260 0002432  84.3453 275.8042 14.72267297166466
IRIDIUM 178             
1 56729U 23068V   26171.01576917  .00000720  00000+0  91293-4 0  9997
2 56729  86.6536  24.1779 0002608  85.3465 274.8055 14.80237780166781
IRIDIUM 179             
1 56730U 23068W   26171.07797717  .00000705  00000+0  89297-4 0  9992
2 56730  86.6772  33.1402 0002464  88.0528 272.0976 14.80235187166790
